[{"OBJECT_NAME":"PRAETORIAN SDA_617","OBJECT_ID":"2025-203R","EPOCH":"2026-03-02T14:21:12.710592","MEAN_MOTION":13.83190446,"ECCENTRICITY":0.0008688,"INCLINATION":81.3014,"RA_OF_ASC_NODE":109.4501,"ARG_OF_PERICENTER":118.317,"MEAN_ANOMALY":241.8864,"EPHEMERIS_TYPE":0,"CLASSIFICATION_TYPE":"U","NORAD_CAT_ID":65580,"ELEMENT_SET_NO":999,"REV_AT_EPOCH":2395,"BSTAR":4.6978e-5,"MEAN_MOTION_DOT":6.3e-7,"MEAN_MOTION_DDOT":0},{"OBJECT_NAME":"PRAETORIAN SDA_618","OBJECT_ID":"2025-203S","EPOCH":"2026-03-02T14:52:17.285664","MEAN_MOTION":13.84761085,"ECCENTRICITY":0.0010941,"INCLINATION":81.2998,"RA_OF_ASC_NODE":109.2886,"ARG_OF_PERICENTER":119.9531,"MEAN_ANOMALY":240.2714,"EPHEMERIS_TYPE":0,"CLASSIFICATION_TYPE":"U","NORAD_CAT_ID":65581,"ELEMENT_SET_NO":999,"REV_AT_EPOCH":2396,"BSTAR":0.00022521,"MEAN_MOTION_DOT":2.66e-6,"MEAN_MOTION_DDOT":0},{"OBJECT_NAME":"PRAETORIAN SDA_619","OBJECT_ID":"2025-203T","EPOCH":"2026-03-02T14:11:27.341952","MEAN_MOTION":13.83930277,"ECCENTRICITY":0.0009248,"INCLINATION":81.3017,"RA_OF_ASC_NODE":109.4478,"ARG_OF_PERICENTER":117.8989,"MEAN_ANOMALY":242.3105,"EPHEMERIS_TYPE":0,"CLASSIFICATION_TYPE":"U","NORAD_CAT_ID":65582,"ELEMENT_SET_NO":999,"REV_AT_EPOCH":2458,"BSTAR":0.00025097,"MEAN_MOTION_DOT":2.9e-6,"MEAN_MOTION_DDOT":0},{"OBJECT_NAME":"PRAETORIAN SDA_620","OBJECT_ID":"2025-203U","EPOCH":"2026-03-02T14:22:54.778368","MEAN_MOTION":13.83704135,"ECCENTRICITY":0.0008794,"INCLINATION":81.3006,"RA_OF_ASC_NODE":109.4347,"ARG_OF_PERICENTER":116.6165,"MEAN_ANOMALY":243.5894,"EPHEMERIS_TYPE":0,"CLASSIFICATION_TYPE":"U","NORAD_CAT_ID":65583,"ELEMENT_SET_NO":999,"REV_AT_EPOCH":2395,"BSTAR":0.00013535,"MEAN_MOTION_DOT":1.62e-6,"MEAN_MOTION_DDOT":0},{"OBJECT_NAME":"PRAETORIAN SDA_621","OBJECT_ID":"2025-203V","EPOCH":"2026-03-02T17:28:48.999360","MEAN_MOTION":13.83786365,"ECCENTRICITY":0.0008648,"INCLINATION":81.2997,"RA_OF_ASC_NODE":109.2663,"ARG_OF_PERICENTER":112.7582,"MEAN_ANOMALY":247.4489,"EPHEMERIS_TYPE":0,"CLASSIFICATION_TYPE":"U","NORAD_CAT_ID":65584,"ELEMENT_SET_NO":999,"REV_AT_EPOCH":2397,"BSTAR":5.3252e-5,"MEAN_MOTION_DOT":7.1e-7,"MEAN_MOTION_DDOT":0},{"OBJECT_NAME":"PRAETORIAN SDA_601","OBJECT_ID":"2025-203W","EPOCH":"2026-03-02T15:59:20.841216","MEAN_MOTION":13.83483459,"ECCENTRICITY":0.0006509,"INCLINATION":81.3013,"RA_OF_ASC_NODE":109.5329,"ARG_OF_PERICENTER":125.4448,"MEAN_ANOMALY":234.7316,"EPHEMERIS_TYPE":0,"CLASSIFICATION_TYPE":"U","NORAD_CAT_ID":65585,"ELEMENT_SET_NO":999,"REV_AT_EPOCH":2395,"BSTAR":-2.0144e-5,"MEAN_MOTION_DOT":-1.0e-7,"MEAN_MOTION_DDOT":0}]
