PRAETORIAN SDA_617      
1 65580U 25203R   26061.59806378  .00000063  00000+0  46978-4 0  9993
2 65580  81.3014 109.4501 0008688 118.3170 241.8864 13.83190446 23955
PRAETORIAN SDA_618      
1 65581U 25203S   26061.61964451  .00000266  00000+0  22521-3 0  9996
2 65581  81.2998 109.2886 0010941 119.9531 240.2714 13.84761085 23965
PRAETORIAN SDA_619      
1 65582U 25203T   26061.59128868  .00000290  00000+0  25097-3 0  9996
2 65582  81.3017 109.4478 0009248 117.8989 242.3105 13.83930277 24586
PRAETORIAN SDA_620      
1 65583U 25203U   26061.59924512  .00000162  00000+0  13535-3 0  9999
2 65583  81.3006 109.4347 0008794 116.6165 243.5894 13.83704135 23958
PRAETORIAN SDA_621      
1 65584U 25203V   26061.72834490  .00000071  00000+0  53252-4 0  9990
2 65584  81.2997 109.2663 0008648 112.7582 247.4489 13.83786365 23974
PRAETORIAN SDA_601      
1 65585U 25203W   26061.66621344 -.00000010  00000+0 -20144-4 0  9995
2 65585  81.3013 109.5329 0006509 125.4448 234.7316 13.83483459 23957
